start=new Date('2022-11-30T00:00:00.000Z').valueOf();
sats=[{"RCS_SIZE":"LARGE","REF_FRAME":"TEME","LAUNCH_DATE":"2021-05-26","INCLINATION":"53.0556","MEAN_MOTION_DDOT":"0.0000000000000","APOAPSIS":"548.014","COUNTRY_CODE":"US","OBJECT_ID":"2021-044K","MEAN_MOTION_DOT":"0.00002581","MEAN_ELEMENT_THEORY":"SGP4","EPOCH":"2022-11-29T14:18:12.509568","PERIAPSIS":"546.364","SITE":"AFETR","RA_OF_ASC_NODE":"91.1004","MEAN_MOTION":"15.06408077","ARG_OF_PERICENTER":"96.6019","TLE_LINE1":"1 48647U 21044K   22333.59597812  .00002581  00000-0  19207-3 0  9997","GP_ID":"219110139","TLE_LINE2":"2 48647  53.0556  91.1004 0001191  96.6019 263.5105 15.06408077 83431","REV_AT_EPOCH":"8343","PERIOD":"95.592","OBJECT_NAME":"STARLINK-2691","ELEMENT_SET_NO":"999","CENTER_NAME":"EARTH","SEMIMAJOR_AXIS":"6925.324","EPHEMERIS_TYPE":"0","MEAN_ANOMALY":"263.5105","OBJECT_TYPE":"PAYLOAD","BSTAR":"0.00019207000000","CLASSIFICATION_TYPE":"U","DECAY_DATE":null,"ECCENTRICITY":"0.00011910","TIME_SYSTEM":"UTC","NORAD_CAT_ID":"48647","FILE":"3673849"},{"RA_OF_ASC_NODE":"90.3046","ARG_OF_PERICENTER":"74.3154","MEAN_MOTION":"15.06397011","PERIAPSIS":"546.293","SITE":"AFETR","REV_AT_EPOCH":"8346","TLE_LINE1":"1 48648U 21044L   22333.80978861  .00000199  00000-0  32261-4 0  9998","GP_ID":"219109890","TLE_LINE2":"2 48648  53.0566  90.3046 0001342  74.3154 285.7983 15.06397011 83469","LAUNCH_DATE":"2021-05-26","MEAN_MOTION_DDOT":"0.0000000000000","INCLINATION":"53.0566","RCS_SIZE":"LARGE","REF_FRAME":"TEME","OBJECT_ID":"2021-044L","MEAN_MOTION_DOT":"0.00000199","MEAN_ELEMENT_THEORY":"SGP4","EPOCH":"2022-11-29T19:26:05.735904","APOAPSIS":"548.152","COUNTRY_CODE":"US","CLASSIFICATION_TYPE":"U","BSTAR":"0.00003226100000","OBJECT_TYPE":"PAYLOAD","TIME_SYSTEM":"UTC","NORAD_CAT_ID":"48648","FILE":"3673849","DECAY_DATE":null,"ECCENTRICITY":"0.00013420","ELEMENT_SET_NO":"999","CENTER_NAME":"EARTH","PERIOD":"95.592","OBJECT_NAME":"STARLINK-2521","MEAN_ANOMALY":"285.7983","EPHEMERIS_TYPE":"0","SEMIMAJOR_AXIS":"6925.358"},{"FILE":"3673849","NORAD_CAT_ID":"48649","TIME_SYSTEM":"UTC","ECCENTRICITY":"0.00013380","DECAY_DATE":null,"CLASSIFICATION_TYPE":"U","OBJECT_TYPE":"PAYLOAD","BSTAR":"0.00012534000000","MEAN_ANOMALY":"292.2570","EPHEMERIS_TYPE":"0","SEMIMAJOR_AXIS":"6925.349","CENTER_NAME":"EARTH","ELEMENT_SET_NO":"999","OBJECT_NAME":"STARLINK-2673","PERIOD":"95.592","REV_AT_EPOCH":"8342","GP_ID":"219111141","TLE_LINE2":"2 48649  53.0548  91.1120 0001338  67.8561 292.2570 15.06399737 83424","TLE_LINE1":"1 48649U 21044M   22333.59230087  .00001586  00000-0  12534-3 0  9997","MEAN_MOTION":"15.06399737","ARG_OF_PERICENTER":"67.8561","RA_OF_ASC_NODE":"91.1120","SITE":"AFETR","PERIAPSIS":"546.288","MEAN_ELEMENT_THEORY":"SGP4","MEAN_MOTION_DOT":"0.00001586","EPOCH":"2022-11-29T14:12:54.795168","OBJECT_ID":"2021-044M","COUNTRY_CODE":"US","APOAPSIS":"548.141","LAUNCH_DATE":"2021-05-26","MEAN_MOTION_DDOT":"0.0000000000000","INCLINATION":"53.0548","REF_FRAME":"TEME","RCS_SIZE":"LARGE"},{"CENTER_NAME":"EARTH","ELEMENT_SET_NO":"999","OBJECT_NAME":"STARLINK-2672","PERIOD":"95.592","EPHEMERIS_TYPE":"0","MEAN_ANOMALY":"273.1694","SEMIMAJOR_AXIS":"6925.350","CLASSIFICATION_TYPE":"U","OBJECT_TYPE":"PAYLOAD","BSTAR":"0.00011728000000","NORAD_CAT_ID":"48650","FILE":"3673849","TIME_SYSTEM":"UTC","ECCENTRICITY":"0.00014480","DECAY_DATE":null,"LAUNCH_DATE":"2021-05-26","MEAN_MOTION_DDOT":"0.0000000000000","INCLINATION":"53.0543","REF_FRAME":"TEME","RCS_SIZE":"MEDIUM","MEAN_MOTION_DOT":"0.00001466","MEAN_ELEMENT_THEORY":"SGP4","EPOCH":"2022-11-29T17:18:40.379616","OBJECT_ID":"2021-044N","COUNTRY_CODE":"US","APOAPSIS":"548.217","ARG_OF_PERICENTER":"86.9460","MEAN_MOTION":"15.06399691","RA_OF_ASC_NODE":"90.5330","SITE":"AFETR","PERIAPSIS":"546.212","REV_AT_EPOCH":"8344","GP_ID":"219110892","TLE_LINE2":"2 48650  53.0543  90.5330 0001448  86.9460 273.1694 15.06399691 83445","TLE_LINE1":"1 48650U 21044N   22333.72130069  .00001466  00000-0  11728-3 0  9994"},{"OBJECT_TYPE":"PAYLOAD","BSTAR":"0.00017192000000","CLASSIFICATION_TYPE":"U","ECCENTRICITY":"0.00015010","DECAY_DATE":null,"FILE":"3673849","NORAD_CAT_ID":"48651","TIME_SYSTEM":"UTC","OBJECT_NAME":"STARLINK-2731","PERIOD":"95.592","CENTER_NAME":"EARTH","ELEMENT_SET_NO":"999","SEMIMAJOR_AXIS":"6925.329","EPHEMERIS_TYPE":"0","MEAN_ANOMALY":"289.7682","SITE":"AFETR","PERIAPSIS":"546.155","ARG_OF_PERICENTER":"70.3469","MEAN_MOTION":"15.06406227","RA_OF_ASC_NODE":"91.4418","TLE_LINE2":"2 48651  53.0550  91.4418 0001501  70.3469 289.7682 15.06406227 83418","GP_ID":"219109640","TLE_LINE1":"1 48651U 21044P   22333.51857293  .00002281  00000-0  17192-3 0  9994","REV_AT_EPOCH":"8341","REF_FRAME":"TEME","RCS_SIZE":"LARGE","MEAN_MOTION_DDOT":"0.0000000000000","INCLINATION":"53.0550","LAUNCH_DATE":"2021-05-26","COUNTRY_CODE":"US","APOAPSIS":"548.234","EPOCH":"2022-11-29T12:26:44.701152","MEAN_ELEMENT_THEORY":"SGP4","MEAN_MOTION_DOT":"0.00002281","OBJECT_ID":"2021-044P"},{"CLASSIFICATION_TYPE":"U","BSTAR":"0.00012648000000","OBJECT_TYPE":"PAYLOAD","FILE":"3673849","NORAD_CAT_ID":"48652","TIME_SYSTEM":"UTC","ECCENTRICITY":"0.00014670","DECAY_DATE":null,"CENTER_NAME":"EARTH","ELEMENT_SET_NO":"999","OBJECT_NAME":"STARLINK-2727","PERIOD":"95.593","EPHEMERIS_TYPE":"0","MEAN_ANOMALY":"294.0176","SEMIMAJOR_AXIS":"6925.376","MEAN_MOTION":"15.06391087","ARG_OF_PERICENTER":"66.0967","RA_OF_ASC_NODE":"91.4650","SITE":"AFETR","PERIAPSIS":"546.225","REV_AT_EPOCH":"8341","TLE_LINE2":"2 48652  53.0544  91.4650 0001467  66.0967 294.0176 15.06391087 83410","GP_ID":"219110390","TLE_LINE1":"1 48652U 21044Q   22333.51489616  .00001602  00000-0  12648-3 0  9992","MEAN_MOTION_DDOT":"0.0000000000000","INCLINATION":"53.0544","LAUNCH_DATE":"2021-05-26","REF_FRAME":"TEME","RCS_SIZE":"LARGE","EPOCH":"2022-11-29T12:21:27.028224","MEAN_ELEMENT_THEORY":"SGP4","MEAN_MOTION_DOT":"0.00001602","OBJECT_ID":"2021-044Q","COUNTRY_CODE":"US","APOAPSIS":"548.257"},{"OBJECT_NAME":"STARLINK-2720","PERIOD":"95.592","CENTER_NAME":"EARTH","ELEMENT_SET_NO":"999","SEMIMAJOR_AXIS":"6925.337","EPHEMERIS_TYPE":"0","MEAN_ANOMALY":"284.6461","BSTAR":"0.00016097000000","OBJECT_TYPE":"PAYLOAD","CLASSIFICATION_TYPE":"U","ECCENTRICITY":"0.00014020","DECAY_DATE":null,"FILE":"3673849","NORAD_CAT_ID":"48653","TIME_SYSTEM":"UTC","REF_FRAME":"TEME","RCS_SIZE":"LARGE","LAUNCH_DATE":"2021-05-26","MEAN_MOTION_DDOT":"0.0000000000000","INCLINATION":"53.0566","COUNTRY_CODE":"US","APOAPSIS":"548.173","MEAN_ELEMENT_THEORY":"SGP4","MEAN_MOTION_DOT":"0.00002117","EPOCH":"2022-11-29T12:16:07.687776","OBJECT_ID":"2021-044R","SITE":"AFETR","PERIAPSIS":"546.231","ARG_OF_PERICENTER":"75.4684","MEAN_MOTION":"15.06403827","RA_OF_ASC_NODE":"91.4828","GP_ID":"219110642","TLE_LINE2":"2 48653  53.0566  91.4828 0001402  75.4684 284.6461 15.06403827 83419","TLE_LINE1":"1 48653U 21044R   22333.51120009  .00002117  00000-0  16097-3 0  9995","REV_AT_EPOCH":"8341"},{"CLASSIFICATION_TYPE":"U","BSTAR":"0.00010404000000","OBJECT_TYPE":"PAYLOAD","TIME_SYSTEM":"UTC","FILE":"3673849","NORAD_CAT_ID":"48654","DECAY_DATE":null,"ECCENTRICITY":"0.00013710","ELEMENT_SET_NO":"999","CENTER_NAME":"EARTH","PERIOD":"95.592","OBJECT_NAME":"STARLINK-2651","MEAN_ANOMALY":"270.6622","EPHEMERIS_TYPE":"0","SEMIMAJOR_AXIS":"6925.360","RA_OF_ASC_NODE":"90.3065","ARG_OF_PERICENTER":"89.4524","MEAN_MOTION":"15.06396205","PERIAPSIS":"546.276","SITE":"AFETR","REV_AT_EPOCH":"8345","TLE_LINE1":"1 48654U 21044S   22333.77291023  .00001268  00000-0  10404-3 0  9991","GP_ID":"219111392","TLE_LINE2":"2 48654  53.0553  90.3065 0001371  89.4524 270.6622 15.06396205 83459","LAUNCH_DATE":"2021-05-26","INCLINATION":"53.0553","MEAN_MOTION_DDOT":"0.0000000000000","RCS_SIZE":"LARGE","REF_FRAME":"TEME","OBJECT_ID":"2021-044S","MEAN_MOTION_DOT":"0.00001268","MEAN_ELEMENT_THEORY":"SGP4","EPOCH":"2022-11-29T18:32:59.443872","APOAPSIS":"548.175","COUNTRY_CODE":"US"},{"MEAN_ANOMALY":"278.1672","EPHEMERIS_TYPE":"0","SEMIMAJOR_AXIS":"6925.238","CENTER_NAME":"EARTH","ELEMENT_SET_NO":"999","OBJECT_NAME":"STARLINK-2657","PERIOD":"95.590","NORAD_CAT_ID":"48655","FILE":"3673849","TIME_SYSTEM":"UTC","ECCENTRICITY":"0.00012870","DECAY_DATE":null,"CLASSIFICATION_TYPE":"U","BSTAR":"-0.00057031000000","OBJECT_TYPE":"PAYLOAD","MEAN_ELEMENT_THEORY":"SGP4","MEAN_MOTION_DOT":"-0.00008774","EPOCH":"2022-11-29T15:16:34.927968","OBJECT_ID":"2021-044T","COUNTRY_CODE":"US","APOAPSIS":"547.994","LAUNCH_DATE":"2021-05-26","MEAN_MOTION_DDOT":"0.0000000000000","INCLINATION":"53.0563","REF_FRAME":"TEME","RCS_SIZE":"LARGE","REV_AT_EPOCH":"8343","GP_ID":"219110140","TLE_LINE2":"2 48655  53.0563  90.9236 0001287  81.9463 278.1672 15.06436189 83434","TLE_LINE1":"1 48655U 21044T   22333.63651537 -.00008774  00000-0 -57031-3 0  9995","ARG_OF_PERICENTER":"81.9463","MEAN_MOTION":"15.06436189","RA_OF_ASC_NODE":"90.9236","SITE":"AFETR","PERIAPSIS":"546.211"},{"RCS_SIZE":"LARGE","REF_FRAME":"TEME","LAUNCH_DATE":"2021-05-26","MEAN_MOTION_DDOT":"0.0000000000000","INCLINATION":"53.0560","APOAPSIS":"548.295","COUNTRY_CODE":"US","OBJECT_ID":"2021-044U","MEAN_MOTION_DOT":"0.00000278","MEAN_ELEMENT_THEORY":"SGP4","EPOCH":"2022-11-29T18:22:22.493568","PERIAPSIS":"546.142","SITE":"AFETR","RA_OF_ASC_NODE":"90.3434","MEAN_MOTION":"15.06398424","ARG_OF_PERICENTER":"73.1009","TLE_LINE1":"1 48656U 21044U   22333.76553812  .00000278  00000-0  37594-4 0  9999","GP_ID":"219109891","TLE_LINE2":"2 48656  53.0560  90.3434 0001554  73.1009 287.0151 15.06398424 83454","REV_AT_EPOCH":"8345","PERIOD":"95.592","OBJECT_NAME":"STARLINK-2701","ELEMENT_SET_NO":"999","CENTER_NAME":"EARTH","SEMIMAJOR_AXIS":"6925.353","MEAN_ANOMALY":"287.0151","EPHEMERIS_TYPE":"0","OBJECT_TYPE":"PAYLOAD","BSTAR":"0.00003759400000","CLASSIFICATION_TYPE":"U","DECAY_DATE":null,"ECCENTRICITY":"0.00015540","TIME_SYSTEM":"UTC","NORAD_CAT_ID":"48656","FILE":"3673849"}];
